UIDNFTN;NAME;LABEL;ADDRESS;X;Y;BUI_NO_BTI;CAD_NO;STREET_BTI;HOUSE_BTI;HADD_BTI;VEDOM;PHONE;OKRUG;RAYON;TYPE;LENGTH_KM;LEN_SVET;MODDATE;MODUSER;LAT;LON
10320;Аршиновский парк;Лыжная трасса;Улица Бакинская,       дом 20;37,655314;55,621522;;;;;;Департамент жилищно-коммунального хозяйства и благоустройства города Москвы;(495) 621-88-68;ЮАО;Царицыно;Лыжные трассы и базы (сезонные);1,2;0;0;;55.621522;37.655314
16325;Кировоградские пруды;Лыжная трасса;Улица Кировоградская, дом 32;37,599635;55,6062;;;;;;Префектура;(495) 315-44-64;ЮАО;Чертаново Центральное;Лыжные трассы и базы (сезонные);1;1;0;;55.6062;37.599635
17065;Сквер на ул.Медынская;Лыжная трасса;Улица Медынская;37,648197;55,582913;;;;;;Префектура;(495) 385-09-22;ЮАО;Бирюлёво Западное;Лыжные трассы и базы (сезонные);2;2;0;;55.582913;37.648197
16706;Озеленённая территория;Лыжная трасса;"Улица Булатниковская от памятника до к/т""Бирюсинка""";37,654186;55,581423;;;;;;Префектура;(495) 385-09-22;ЮАО;Бирюлёво Западное;Лыжные трассы и базы (сезонные);2;2;0;;55.581423;37.654186
16643;Набережная реки Москва;Лыжная трасса;Улица Борисовские пруды, дом 10, корпус 1;37,737705;55,638694;;;;;;Префектура;(495) 342-42-70;ЮАО;Братеево;Лыжные трассы и базы (сезонные);3;3;0;;55.638694;37.737705
16736;"Парк ""Бекет""";Лыжная трасса;Загородное шоссе, дом 2а;37,611244;55,698707;;;;;;Префектура;(495) 958-15-90;ЮАО;Донской;Лыжные трассы и базы (сезонные);2;2;0;;55.698707;37.611244
16707;Озеленённая территория;Лыжная трасса;Улица Мусы Джалиля,    дом 9, корпус 5;37,74913;55,627346;;;;;;Префектура;(499) 725-43-94;ЮАО;Зябликово;Лыжные трассы и базы (сезонные);1,5;1,5;0;;55.627346;37.74913
16950;пойма реки Городни;Лыжная трасса;Улица Мусы Джалиля,    дом 2, корпус 2;37,73569;55,630274;;;;;;Префектура;(499) 725-43-94;ЮАО;Зябликово;Лыжные трассы и базы (сезонные);2,3;0;0;;55.630274;37.73569
16642;Набережная реки Москва;Лыжная трасса;Проспект Андропова,     дом 22;37,660891;55,684794;;;;;;Префектура;(499) 612-05-62;ЮАО;Нагатино-Садовники;Лыжные трассы и базы (сезонные);1;1;0;;55.684794;37.660891
17437;Улица Затонная, д.2-2;Лыжная трасса;Улица Затонная,          дом 2;37,688022;55,674246;;;;;;Префектура;(499) 614-17-00;ЮАО;Нагатинский Затон;Лыжные трассы и базы (сезонные);2;2;0;;55.674246;37.688022
16703;Озеленённая территория;Лыжная трасса;Балаклавский проезд,     дом 6;37,612962;55,64254;;;;;;Префектура;(499) 619-63-08;ЮАО;Нагорный;Лыжные трассы и базы (сезонные);1,2;1,2;0;;55.64254;37.612962
17016;Березовая роща;Лыжная трасса;Каширское шоссе,      дом 128-132;37,782019;55,408849;;;;;;Префектура;(495) 343-24-83;ЮАО;Орехово-Борисово Южное;Лыжные трассы и базы (сезонные);1;1;0;;55.408849;37.782019
16705;Озеленённая территория;Лыжная трасса;Улица Академика Янгеля, дом 14, корпус 3;37,581629;55,599803;;;;;;Префектура;(495) 382-97-63;ЮАО;Чертаново Южное;Лыжные трассы и базы (сезонные);1,8;1,8;0;;55.599803;37.581629
16745;"Парк ""Сосенки""";Лыжная трасса;Пересечение Кавказский бульвара и улицы Бакинская;37,65854;55,627117;;;;;;Департамент жилищно-коммунального хозяйства и благоустройства города Москвы;(495) 321-86-13;ЮАО;Царицыно;Лыжные трассы и базы (сезонные);2;0;0;;55.627117;37.65854
11114;"ГМЗ ""Царицыно""";Лыжная трасса;Пересечение Шипиловского проезда и Новоцарицинского шоссе;37,693231;55,617958;;;;;;Департамент культуры города Москвы;(495) 392-07-75;ЮАО;Орехово-Борисово Северное;Лыжные трассы и базы (сезонные);5;3;0;;55.617958;37.693231
16644;Набережная реки Москва;Лыжная трасса;Улица Борисовские пруды, дом 44;37,771252;55,644701;;;;;;Префектура;(495) 342-42-70;ЮАО;Братеево;Лыжные трассы и базы (сезонные);3;3;0;;55.644701;37.771252
16407;Лесопарк, улица Заречье, владение 7, ПиП Кузьминки-Люблино кв. 9 (Конно-спортивная база);Лыжная трасса;Слева от входа на конно-спортивную базу;37,773995;55,688689;;;;;;Департамент природопользования и охраны окружающей среды города Москвы;(495) 258-45-60, (906) 739-94-39;ЮВАО;Кузьминки;Лыжные трассы и базы (сезонные);3,1;0,57;0;;55.688689;37.773995
10379;Волгоградский пр-т, 168-д, ПиП Кузьминки-Люблино кв. 16-17 (Усадьба Деда Мороза);Лыжная трасса;За Усадьбой Деда Мороза;37,811158;55,688099;;;;;;Департамент природопользования и охраны окружающей среды города Москвы;(495) 258-45-60;ЮВАО;Выхино-Жулебино;Лыжные трассы и базы (сезонные);3,75;0,72;0;;55.688099;37.811158
17428;Улица Привольная, напротив д 41 (ПиП Кузьминки-Люблино Квартал 13, круговой маршрут);Лыжная трасса;Улица Привольная, напротив дома 41;37,846317;55,690451;;;;;;Департамент природопользования и охраны окружающей среды города Москвы;(495) 258-45-60;ЮВАО;Выхино-Жулебино;Лыжные трассы и базы (сезонные);2,98;0;0;;55.690451;37.846317
17424;Улица Головачева, напротив д.27 (Квартал 24, 25, 29, круговой маршрут);Лыжная трасса;Улица Головачева, напротив дома 27;37,82072;55,671929;;;;;;Департамент природопользования и охраны окружающей среды города Москвы;(495) 258-45-60;ЮВАО;Люблино;Лыжные трассы и базы (сезонные);5,75;0;0;;55.671929;37.82072
16415;Лефортовский парк;Лыжная трасса;Улица Красноказарменная, дом 1;37,689547;55,76214;;;;;;Департамент культуры города Москвы;(495) 361-75-49;ЮВАО;Лефортово;Лыжные трассы и базы (сезонные);2;0,5;0;;55.76214;37.689547
16702;Озелененная территория Некрасовская ул., д.8;Лыжная трасса;Улица Некрасовская, дом 8;37,925714;55,680393;;;;;;Префектура;(985) 415-00-09;ЮВАО;Некрасовка;Лыжные трассы и базы (сезонные);0,8;0,4;0;;55.680393;37.925714
16641;Набережная Москвы-реки 2 Южнопортовый пр-д, д. 2-13;Лыжная трасса;2-ой Южнопортовый пр-д, напротив дома 11;37,676297;55,700218;;;;;;Префектура;(495) 958-98-64;ЮВАО;Южнопортовый;Лыжные трассы и базы (сезонные);0,5;0,5;0;;55.700218;37.676297
17062;Сквер имени    «60 лет Победы в Великой Отечественной Войне»;Лыжная трасса;Улица Гурьянова, дом 31 корпус 2;37,716679;55,68508;;;;;;Департамент жилищно-коммунального хозяйства и благоустройства города Москвы;(499) 786-19-30;ЮВАО;Печатники;Лыжные трассы и базы (сезонные);2,1;0;0;;55.68508;37.716679
10270;Стадион Энергия;Лыжная трасса;2-ой Краснокурсантский пр-д, дом 12;37,701657;55,762909;;;;;;Федеральная;(495) 361-75-49;ЮВАО;Лефортово;Лыжные трассы и базы (сезонные);0,5;0;0;;55.762909;37.701657
16748;Парк «850-летия Москвы»;Лыжная трасса;Улица Поречная, напротив  дом 3, корпус 1;37,7513;55,643899;;;;;;Префектура;(495) 657-45-05;ЮВАО;Марьино;Лыжные трассы и базы (сезонные);3;3;0;;55.643899;37.7513
17426;Улица Марьинский парк, д.37-41;Лыжная трасса;Улица Марьинский парк, дом 37;37,794299;55,668695;;;;;;Префектура;(499) 722-74-75;ЮВАО;Люблино;Лыжные трассы и базы (сезонные);1;0,3;0;;55.668695;37.794299
16747;Перспективная территория парка «850-летия Москвы»;Лыжная трасса;Проетируемый проезд, квартал 5466-5467;37,787171;55,650815;;;;;;Префектура;(495) 355-19-01;ЮВАО;Капотня;Лыжные трассы и базы (сезонные);2;2;0;;55.650815;37.787171
10346;Бирюлевский дендропарк;Лыжная трасса;Улица Липецкая;37,676039;55,595096;;;;;;Департамент природопользования и охраны окружающей среды города Москвы;(495) 621-88-68;ЮАО;Бирюлёво Восточное;Лыжные трассы и базы (сезонные);2,5;0;0;;55.595096;37.676039
10346;Бирюлевский дендропарк;Лыжная трасса;Улица Липецкая;37,676039;55,595096;;;;;;Департамент природопользования и охраны окружающей среды города Москвы;(495) 621-88-68;ЮАО;Бирюлёво Восточное;Лыжные трассы и базы (сезонные);2,5;0;0;;55.595096;37.676039
11088;Герценский парк;Лыжная трасса;Загорьевский проезд,    дом 4;37,679211;55,576482;;;;;;Департамент природопользования и охраны окружающей среды города Москвы;(495) 329-63-00;ЮАО;Бирюлёво Восточное;Лыжные трассы и базы (сезонные);2;0;0;;55.576482;37.679211
15787;Детский парк по Загородному шоссе;Лыжная трасса;Загородное шоссе, дом 2;37,607015;55,695735;;;;;;Префектура;(495) 958-15-90;ЮАО;Донской;Лыжные трассы и базы (сезонные);2;2;0;;55.695735;37.607015
16704;Озеленённая территория;Лыжная трасса;Ореховый проезд, дом 37, корпус 1;37,73036;55,617645;;;;;;Префектура;(499) 725-43-94;ЮАО;Зябликово;Лыжные трассы и базы (сезонные);1;1;0;;55.617645;37.73036
17423;Улица Борисовские пруды, вдоль Москва-реки;Лыжная трасса;Улица Борисовские пруды, напротив дома1, корпус 1;37,709103;55,63508;;;;;;Префектура;(499) 323-6226;ЮАО;Москворечье-Сабурово;Лыжные трассы и базы (сезонные);7;3;0;;55.63508;37.709103
16759;Парк культуры и отдыха в Садовниках;Лыжная трасса;Коломенский проезд,   дом 14;37,653471;55,664456;;;;;;Департамент жилищно-коммунального хозяйства и благоустройства города Москвы;(495) 382-81-10;ЮАО;Нагатино-Садовники;Лыжные трассы и базы (сезонные);2;1;0;;55.664456;37.653471
16759;Парк культуры и отдыха в Садовниках;Лыжная трасса;Коломенский проезд,     дом 14;37,653471;55,664456;;;;;;Департамент жилищно-коммунального хозяйства и благоустройства города Москвы;(495) 382-81-10;ЮАО;Нагатино-Садовники;Лыжные трассы и базы (сезонные);2;1;0;;55.664456;37.653471
16431;"МГОМЗ ""Коломенское""";Лыжная трасса;Проспект Андропова,     дом 39;37,665015;55,671486;;;;;;Департамент культуры города Москвы;(499) 612-11-55;ЮАО;Нагатинский Затон;Лыжные трассы и базы (сезонные);8;8;0;;55.671486;37.665015
16431;"МГОМЗ ""Коломенское""";Лыжная трасса;Проспект Андропова,     дом 39;37,665015;55,671486;;;;;;Департамент культуры города Москвы;(499) 612-11-55;ЮАО;Нагатинский Затон;Лыжные трассы и базы (сезонные);8;8;0;;55.671486;37.665015
17756;ЦВВС;Лыжная трасса;Электролитный проезд, дом 7б;37,609885;55,675597;;;;;;Федеральная;(499) 619-63-08;ЮАО;Нагорный;Лыжные трассы и базы (сезонные);2;2;0;;55.675597;37.609885
11113;"ГМЗ ""Царицыно""";Лыжная трасса;"КПП №7 ГМЗ ""Царицыно""";37,680793;55,606808;;;;;;Департамент культуры города Москвы;(495) 321-63-66;ЮАО;Орехово-Борисово Северное;Лыжные трассы и базы (сезонные);5;5;0;;55.606808;37.680793
16762;Парк по Борисовским прудам;Лыжная трасса;Борисовские пруды;37,720054;55,633157;;;;;;Департамент природопользования и охраны окружающей среды города Москвы;(495) 621-88-68;ЮАО;Орехово-Борисово Северное;Лыжные трассы и базы (сезонные);3;3;0;;55.633157;37.720054
16689;"ОАО КСК ""Битца""";Лыжная трасса;Балаклавский проспект, дом 33;37,578579;55,644472;;;;;;Префектура;(495) 955-93-93;ЮАО;Чертаново Северное;Лыжные трассы и базы (сезонные);3;3;0;;55.644472;37.578579
16753;Парк 60 лет Октября;Лыжная трасса;Проспект Андропова,   дом 9;37,669013;55,689884;;;;;;Департамент жилищно-коммунального хозяйства и благоустройства города Москвы;(495) 382-81-10;ЮАО;Нагатинский Затон;Лыжные трассы и базы (сезонные);2;0;0;;55.689884;37.669013
16753;Парк 60 лет Октября;Лыжная трасса;Проспект Андропова,   дом 9;37,669013;55,689884;;;;;;Департамент жилищно-коммунального хозяйства и благоустройства города Москвы;(495) 382-81-10;ЮАО;Нагатинский Затон;Лыжные трассы и базы (сезонные);2;0;0;;55.689884;37.669013
16303;Зона отдыха Борисовские пруды;Лыжная трасса;Улица Борисовские пруды, дом 2;37,708541;55,633476;;;;;;Департамент жилищно-коммунального хозяйства и благоустройства города Москвы;(495) 621-88-68;ЮАО;Царицыно;Лыжные трассы и базы (сезонные);4,1;4,1;0;;55.633476;37.708541
16964;"ПП ""Долина реки Сходни в Куркино"", улица Ландышевая";Лыжная трасса;Березовая роща со стороны       улицы Ландышевая;37,386136;55,880746;;;;;;Департамент природопользования и охраны окружающей среды города Москвы;(499) 493-01-80;СЗАО;Куркино;Лыжные трассы и базы (сезонные);3;0;0;;55.880746;37.386136
16965;"ПП ""Серебряный бор"", улица Таманская";Лыжная трасса;Большой лесной массив, детский парк;37,413479;55,790198;;;;;;Департамент природопользования и охраны окружающей среды города Москвы;(499) 493-01-80;СЗАО;Хорошево-Мневники;Лыжные трассы и базы (сезонные);5;0;0;;55.790198;37.413479
16884;"ПИП ""Москворецкий"",   улица Исаковского, 6-22";Лыжная трасса;Кировская пойма, напротив ул.Исаковского, дом 6-22;37,40167;55,818912;;;;;;Департамент природопользования и охраны окружающей среды города Москвы;(499) 493-01-80;СЗАО;Строгино;Лыжные трассы и базы (сезонные);3;0;0;;55.818912;37.40167
16885;"ПИП ""Покровское-Стрешнево"", Иваньковское шоссе, 54-1";Лыжная трасса;Вход в парк со стороны Иваньковского шоссе,     дом 54, корпус 1;37,469658;55,8162;;;;;;Департамент природопользования и охраны окружающей среды города Москвы;(499) 493-01-80;СЗАО;Покровское-Стрешнево;Лыжные трассы и базы (сезонные);5;0;0;;55.8162;37.469658
17436;Улица В.Лациса, 26;Лыжная трасса;Улица В.Лациса,  дом 26;37,414034;55,862371;;;;;;Департамент природопользования и охраны окружающей среды города Москвы;(499) 493-01-80;СЗАО;Северное Тушино;Лыжные трассы и базы (сезонные);7,5;1,5;0;;55.862371;37.414034
16387;Ландшафтный парк Митино, улица Пенягинская, 14;Лыжная трасса;Улица Пенягинская,     дом 14;37,361026;55,836461;;;;;;Департамент жилищно-коммунального хозяйства и благоустройства города Москвы;(499) 493-01-80;СЗАО;Митино;Лыжные трассы и базы (сезонные);3;0;0;;55.836461;37.361026
10384;"ГУК г.Москвы ""ПКиО ""Северное Тушино"", ул.Свободы, 56";Лыжная трасса;Улица Свободы,  дом 56;37,449998;55,86093;;;;;;Департамент культуры города Москвы;(499) 497-03-80;СЗАО;Северное Тушино;Лыжные трассы и базы (сезонные);4,5;0;0;;55.86093;37.449998
16882;"ПИП ""Москворецкий""";Лыжная трасса;Около улицы Твардовского, дом 16;37,981551;55,791599;;;;;;Департамент природопользования и охраны окружающей среды города Москвы;(499) 493-01-80;СЗАО;Строгино;Лыжные трассы и базы (сезонные);1,5;0;0;;55.791599;37.981551
16883;"ПИП ""Москворецкий""";Лыжная трасса;Щукинский полуостров;37,438511;55,793385;;;;;;Департамент природопользования и охраны окружающей среды города Москвы;(499) 493-01-80;СЗАО;Строгино;Лыжные трассы и базы (сезонные);3,5;0;0;;55.793385;37.438511
10359;Бульварная зона, 17-й микрорайон (русло рек Каменка и Горетовка);Лыжная трасса;напротив 16 микрорайона;37,153163;55,967967;;;;;;Управа и муниципалитет Крюково;(499) 717-44-33;ЗелАО;Крюково;лыжные трассы и базы (сезонные);2,5;0;0;;55.967967;37.153163
10359;Бульварная зона, 17-й микрорайон (русло рек Каменка и Горетовка);Лыжная трасса;напротив 16 микрорайона;37,153163;55,967967;;;;;;Управа и муниципалитет Крюково;(499) 717-44-33;ЗелАО;Крюково;лыжные трассы и базы (сезонные);0,7;0;0;;55.967967;37.153163
16398;"Лесной массив, 11-й микрорайон (от корп. 1126), (16 квартал ""Крюковского"" лесопарка)";Лыжная трасса;"Лесной массив, 11-й микрорайон (от корп. 1126), (16 квартал ""Крюковского"" лесопарка)";37,174597;55,99762;;;;;;Департамент природопользования и охраны окружающей среды города Москвы;(499) 735-55-56;ЗелАО;Силино;лыжные трассы и базы (сезонные);3;0;0;;55.99762;37.174597
17874;Черное озеро, лесной массив 6 микрорайон;Лыжная трасса;Черное озеро, лесной массив 6 микрорайон;37,237751;55,992939;;;;;;Департамент природопользования и охраны окружающей среды города Москвы;(499) 735-55-57;ЗелАО;Савелки;лыжные трассы и базы (сезонные);1,2;0;0;;55.992939;37.237751
16717;Олонецкий проезд, дом 10-20 (парковая зона поймы реки Яузы);Лыжная трасса;Олонецкий проезд, дом 5;37,666494;55,881618;;;;;;Департамент жилищно-коммунального хозяйства и благоустройства города Москвы;(495) 621-88-68;СВАО;Бабушкинский;Лыжные трассы и базы (сезонные);1;1;0;;55.881618;37.666494
16718;Олонецкий проезд,д.5;Лыжная трасса;Олонецкий проезд, дом 5;37,666494;55,881618;;;;;;Департамент жилищно-коммунального хозяйства и благоустройства города Москвы;(495) 619-94-18;СВАО;Бабушкинский;Лыжные трассы и базы (сезонные);2,3;2,3;0;;55.881618;37.666494
10272;9-я Северная линия, дом 1, корпус 3;Лыжная трасса;9-я Северная линия, дом 1, корпус 3;37,5574;55,935607;;;;;;Департамент природопользования и охраны окружающей среды города Москвы;(495) 619-94-18;СВАО;Северный;Лыжные трассы и базы (сезонные);3;0;0;;55.935607;37.5574
10284;Алтуфьевское шоссе, д. 102Б;Лыжная трасса;Алтуфьевское шоссе,   дом 102 Б;37,592114;55,903428;;;;;;Департамент природопользования и охраны окружающей среды города Москвы;(495) 579-29-76;СВАО;Бибирево;Лыжные трассы и базы (сезонные);2;0;0;;55.903428;37.592114
17427;"Улица Мелиховская, д. 2 (пойма вдоль реки ""Чермянка"")";Лыжная трасса;"Улица Мелиховская, дом 2 (пойма вдоль реки ""Чермянка"")";37,606075;55,900274;;;;;;Департамент природопользования и охраны окружающей среды города Москвы;(495) 619-94-18;СВАО;Бибирево;Лыжные трассы и базы (сезонные);2;2;0;;55.900274;37.606075
17447;Участок между улицей Череповецкой, Псковской, Зональной, Угличской;Лыжная трасса;Участок между улицей Череповецкой, Псковской, Зональной, Угличской;37,558678;55,899612;;;;;;Департамент природопользования и охраны окружающей среды города Москвы;(495) 619-94-18;СВАО;Лианозово;Лыжные трассы и базы (сезонные);2,5;2,5;0;;55.899612;37.558678
10362;Вдоль Вологодского проезда;Лыжная трасса;Вдоль Вологодского проезда;37,580768;55,906088;;;;;;Префектура;(495) 618-40-24 ;СВАО;Лианозово;Лыжные трассы и базы (сезонные);3,2;3,2;0;;55.906088;37.580768
17754;Хлебниковский лесопарк, Студеный проезд, д. 1, корп. 1, улица Полярная, д. 56, корп. 2;Лыжная трасса;Хлебниковский лесопарк,   Студеный проезд, дом1, корпус1, улица Полярная, дом 56, корпус 2;37,650401;55,894939;;;;;;Департамент природопользования и охраны окружающей среды города Москвы;(495) 579-29-76;СВАО;Северное Медведково;Лыжные трассы и базы (сезонные);1,5;1;0;;55.894939;37.650401
17753;Хлебниковский лесопарк, ПК-1, 13 (кв. 117-119) Долгопрудненская аллея;Лыжная трасса;Хлебниковский лесопарк, ПК-1,  дом 13 (кв. 117-119) Долгопрудненская аллея;37,646712;55,939531;;;;;;Департамент природопользования и охраны окружающей среды города Москвы;(495) 579-29-76;СВАО;Северный;Лыжные трассы и базы (сезонные);4;0;0;;55.939531;37.646712
17429;"ул. Ротерта, д. 5, Национальный парк ""Лосиный остров""";Лыжная трасса;"Улица Ротерта,  дом 5, Национальный парк ""Лосиный остров""";37,725817;55,872964;;;;;;Федеральная;(499) 188-77-65;СВАО;Ярославский;Лыжные трассы и базы (сезонные);3,5;0;0;;55.872964;37.725817
10271;6-я Северная линия,д.1 (парк Северный);Лыжная трасса;Территория между Алтуфьевским шоссе и поселком Нагорное (Московская область);37,554997;55,938124;;;;;;Префектура;(499) 767-66-18 (495) 619-94-18;СВАО;Северный;Лыжные трассы и базы (сезонные);1,5;1,5;0;;55.938124;37.554997
17432;Улица Сельскохозяйственная, д. 26;Лыжная трасса;УлицаСельскохозяйственная, дом 26;37,639405;55,837986;;;;;;Префектура;(499) 181-41-12;СВАО;Ростокино;Лыжные трассы и базы (сезонные);1;1;0;;55.837986;37.639405
17430;Улица Руставели, д.7 (филиал Лианозовского парка);Лыжная трасса;Улица Руставели,     владение 7;37,589642;55,813324;;;;;;Департамент культуры города Москвы;(499) 908-85-00 (499) 908-35-00;СВАО;Бутырский;Лыжные трассы и базы (сезонные);0,8;0,8;0;;55.813324;37.589642
17069;"Сквер у кинотеатра ""Ереван""";Лыжная трасса;Дмитровское шоссе,   дом 82;37,549561;55,866458;;;;;;Департамент жилищно-коммунального хозяйства и благоустройства города Москвы;(985) 411-46-45;САО;Бескудниковский;Лыжные трассы и базы (сезонные);1,1;1,1;0;;55.866458;37.549561
16743;"Парк ""Северные дубки""";Лыжная трасса;Керамический проезд;37,564758;55,888845;;;;;;Департамент жилищно-коммунального хозяйства и благоустройства города Москвы;(495) 940-33-62;САО;Восточное Дегунино;Лыжные трассы и базы (сезонные);1;1;0;;55.888845;37.564758
17755;Ходынское поле;Лыжная трасса;Ходынский бульвар;37,532567;55,785415;;;;;;Префектура;(499) 740-54-29;САО;Хорошевский;Лыжные трассы и базы (сезонные);1,3;1,3;0;;55.785415;37.532567
17407;территория Химкинского лесопарка;Лыжная трасса;Улица Дыбенко, дом 5;37,480626;55,873858;;;;;;Департамент природопользования и охраны окружающей среды города Москвы;(499) 976-49-56;САО;Ховрино;Лыжные трассы и базы (сезонные);1,5;1,5;0;;55.873858;37.480626
17368;"Стадион ""Сокол""";Лыжная трасса;Елизаветинский переулок, дом 3А;37,674276;55,760676;;;;;;федеральная;(499) 265-71-03;ЦАО;Басманный;Лыжные трассы и базы (сезонные);0,45;0,45;0;;55.760676;37.674276
17355;"Стадион ""Локомотив""";Лыжная трасса;Улица Новорязанская,  владение 29;37,668588;55,772508;;;;;;частная;(915) 332-65-65;ЦАО;Басманный;Лыжные трассы и базы (сезонные);0,45;0,45;0;;55.772508;37.668588
11333;"ГОУ ДООЦ ""Центральный""      (Парк Фестивальный)";Лыжная трасса;Улица Сущевский вал,   дом 56;37,619113;55,790418;;;;;;федеральная;(495) 688-57-87;ЦАО;Мещанский;Лыжные трассы и базы (сезонные);0,5;0,5;0;;55.790418;37.619113
16895;"ПКИиО ""Красная Пресня""";Лыжная трасса;Улица Мантулинская,   дом 5;37,549721;55,75527;;;;;;Департамент культуры города Москвы;(499) 256-33-42;ЦАО;Пресненский;Лыжные трассы и базы (сезонные);1,2;1,2;0;;55.75527;37.549721
16317;Калитниковский пруд;Лыжная трасса;Большой Калитниковский проезд, дом 11;37,688335;55,73315;;;;;;Департамент жилищно-коммунального хозяйства и благоустройства города Москвы;(495) 912-95-43;ЦАО;Таганский;Лыжные трассы и базы (сезонные);1;1;0;;55.73315;37.688335
16669;Новоспасский пруд;Лыжная трасса;Новоспасский переулок, дом 11;37,652418;55,73189;;;;;;Департамент жилищно-коммунального хозяйства и благоустройства города Москвы;(495) 912-95-43;ЦАО;Таганский;Лыжные трассы и базы (сезонные);0,7;0,7;0;;55.73189;37.652418
11966;"Дворец творчества детей и молодежи ""На Миуссах""";Лыжная трасса;2-й Щемиловский переулок, дом 4;37,610371;55,776528;;;;;;Департамент образования города Москвы;(499) 251-83-39;ЦАО;Тверской;Лыжные трассы и базы (сезонные);0,4;0,4;0;;55.776528;37.610371
11332;"ГОУ ДООЦ ""Новослободский""";Лыжная трасса;Улица Новослободская, дом 58/12;37,592464;55,78986;;;;;;Департамент образования города Москвы;(499) 972-68-73;ЦАО;Тверской;Лыжные трассы и базы (сезонные);0,5;0,5;0;;55.78986;37.592464
17343;"Стадион ""Буревестник""";Лыжная трасса;Улица Плющиха,       дом 57/59;37,575871;55,735797;;;;;;федеральная;(499) 245-77-64;ЦАО;Хамовники;Лыжные трассы и базы (сезонные);0,8;0,8;0;;55.735797;37.575871
15763;"ДДТ ""Усадьба Трубецких в Хамовниках""";Лыжная трасса;Улица Усачева,  дом 1А;37,579374;55,727869;;;;;;Департамент образования города Москвы;(495) 637-00-48;ЦАО;Хамовники;Лыжные трассы и базы (сезонные);0,8;0,8;0;;55.727869;37.579374
16648;"Лесопарковая зона ""Лосиный остров"" Богатырский мост.";Лыжная трасса;Улица Богатырский мост, дом 11;37,691407;55,818248;;;;;;Департамент природопользования и охраны окружающей среды города Москвы;(499) 268-60-45;ВАО;Богородское;Лыжные трассы и базы (сезонные);8;0;0;;55.818248;37.691407
17060;Сквер;Лыжная трасса;Зеленый проспект, владение 74;37,827707;55,749286;;;;;;Префектура;(985) 411-46-45;ВАО;Новогиреево;Лыжные трассы и базы (сезонные);0,5;0,5;0;;55.749286;37.827707
16871;"Парк культуры и отдыха ""Перово""";Лыжная трасса;Улица Лазо,   владение 7;37,775368;55,739646;;;;;;Департамент культуры города Москвы;(495) 368-26-10;ВАО;Перово;Лыжные трассы и базы (сезонные);0,5;0,5;0;;55.739646;37.775368
18400;"ПКиО ""Кузьминки""";Лыжная трасса;Улица Заречье,   дом 1, строение 2;37,775447;55,689603;;;;;;Префектура;(499) 172-19-34;ЮВАО;Кузьминки;Лыжные трассы и базы (сезонные);2;2;0;;55.689603;37.775447
18401;Набережная Москвы реки вдоль 4-го-5-го кварталов района;Лыжная трасса;Капотня, 5-й квартал,   дом 2;37,794728;55,627912;;;;;;Префектура;(495) 624-45-12;ЮВАО;Капотня;Лыжные трассы и базы (сезонные);1,4;0;0;;55.627912;37.794728
18402;Улица Заречье, д. 15 (квартал 10, 11 круговой маршрут);Лыжная трасса;Улица Заречье, владение 7;37,774649;55,689586;;;;;;Департамент природопользования и охраны окружающей среды города Москвы;(495) 258-45-60;ЮВАО;Кузьминки;Лыжные трассы и базы (сезонные);3;0;0;;55.689586;37.774649
18403;У Кузьминских прудов (квартал 2-3);Лыжная трасса;Напротив улица Заречье, владение 14;37,775829;55,691792;;;;;;Департамент природопользования и охраны окружающей среды города Москвы;(495) 258-45-60;ЮВАО;Кузьминки;Лыжные трассы и базы (сезонные);1;0;0;;55.691792;37.775829
18404;Улица Привольная, д. 19 (квартал 13, круговой маршрут);Лыжная трасса;Улица Привольная, дом 19;37,842028;55,69707;;;;;;Департамент природопользования и охраны окружающей среды города Москвы;(495) 258-45-60;ЮВАО;Выхино-Жулебино;Лыжные трассы и базы (сезонные);1,7;0;0;;55.69707;37.842028
18405;Парк Артёма Боровика;Лыжная трасса;Пресечение улицы Братиславская и Перева;37,756425;55,661346;;;;;;Префектура;(495) 624-45-12;ЮВАО;Марьино;Лыжные трассы и базы (сезонные);1;1;0;;55.661346;37.756425
18406;Улица Заречье (квартал 7 круговой маршрут);Лыжная трасса;Улица Заречье, владение 8;37,768577;55,689217;;;;;;Департамент природопользования и охраны окружающей среды города Москвы;(495) 258-45-60;ЮВАО;Кузьминки;Лыжные трассы и базы (сезонные);2;0;0;;55.689217;37.768577
18407;Зелёная зона Перовское шоссе, вл. 25-27;Лыжная трасса;Перовское шоссе, владения 25-27;37,754539;55,736952;;;;;;Префектура;(499) 678-11-93;ЮВАО;Нижегородский;Лыжные трассы и базы (сезонные);2;0,4;0;;55.736952;37.754539
18408;Межкольный стадион ГОУ СОШ № 489, 841;Лыжная трасса;Волжский бульвар, дом 6, корпус 2;37,73597;55,718216;;;;;;Департамент образования города Москвы;(499) 376-56-61;ЮВАО;Текстильщики;Лыжные трассы и базы (сезонные);0,4;0;0;;55.718216;37.73597
18409;Пойма реки Городни;Лыжная трасса;Нахимовский проезд,   дом 6а;37,609231;55,665624;;;;;;Департамент природопользования и охраны окружающей среды города Москвы;(495) 621-88-68;ЮАО;Братеево;Лыжные трассы и базы (сезонные);3,8;3,8;0;;55.665624;37.609231
18410;"Парк ""Северное Тушино"", улица Свободы, 99";Лыжная трасса;Улица Свободы, дом 91;37,447539;55,866777;;;;;;Департамент природопользования и охраны окружающей среды города Москвы;(495) 616-67-89;СЗАО;Северное Тушино;Лыжные трассы и базы (сезонные);2;2;0;;55.866777;37.447539
18411;"Стадион Ангстрем, лесной массив за Городской больницей №3, (19 квартал ""Крюковского"" лесопарка)";Лыжная трасса;"Стадион ""Ангстрем""";37,22562;55,981986;;;;;;частная;(495) 961-21-35;ЗелАО;Старое Крюково;лыжные трассы и базы (сезонные);10;0;0;;55.981986;37.22562
16115;Джамгаровский парк (Стартовая улица);Лыжная трасса;Джамгаровский парк (Стартовая улица);37,69572;55,888489;;;;;;Департамент жилищно-коммунального хозяйства и благоустройства города Москвы;(495) 621-88-68;СВАО;Лосиноостровский;Лыжные трассы и базы (сезонные);6;6;0;;55.888489;37.69572
17067;Сквер по ул.Тайнинская. Осташковская, Изумрудная;Лыжная трасса;"Парк ""Торфянка"" улица Осташковская,  улица Изумрудная";37,682494;55,876123;;;;;;Департамент жилищно-коммунального хозяйства и благоустройства города Москвы;(495) 621-88-68;СВАО;Лосиноостровский;Лыжные трассы и базы (сезонные);1,2;1,2;0;;55.876123;37.682494
10321;Бабушкинский ПКиО ул. Менжинского, д. 6;Лыжная трасса;Бабушкинский ПКиО        улица Менжинского,     дом 6;37,682037;55,866443;;;;;;Департамент культуры города Москвы;(499) 184-34-22;СВАО;Лосиноостровский;Лыжные трассы и базы (сезонные);1;1;0;;55.866443;37.682037
17422;Улица 1-ая Останкинская,   вл. 7а;Лыжная трасса;Улица 1-ая Останкинская, владение 7а;37,61379;55,827436;;;;;;Префектура;(495) 181-55 11;СВАО;Останкинский;Лыжные трассы и базы (сезонные);2,5;2,5;0;;55.827436;37.61379
18290;Юрловский проезд, д. 6,    вл. 12-14;Лыжная трасса;Юрловский проезд, дом 6,      владение 12-14;37,626081;55,86776;;;;;;Префектура;(495) 618-40-24 ;СВАО;Отрадное;Лыжные трассы и базы (сезонные);6;0;0;;55.86776;37.626081
17071;Проспект Мира, д. 161-163;Лыжная трасса;Проспект Мира, дом 161-163;37,65143;55,836151;;;;;;Департамент жилищно-коммунального хозяйства и благоустройства города Москвы;(495) 621-88-68;СВАО;Ростокино;Лыжные трассы и базы (сезонные);1,1;1,1;0;;55.836151;37.65143
17015;Ростокинский Акведук;Лыжная трасса;Проезд Кадомцева,     дом 5-15 (Акведук);37,658559;55,828294;;;;;;Департамент жилищно-коммунального хозяйства и благоустройства города Москвы;(495) 621-88-68;СВАО;Ростокино;Лыжные трассы и базы (сезонные);5;5;0;;55.828294;37.658559
17070;"Сквер у метро ""Ботанический сад"", улица В. Пика-Леоновская";Лыжная трасса;"Сквер у метро ""Ботанический сад"", улица В. Пика-Леоновская";37,638914;55,843325;;;;;;Департамент жилищно-коммунального хозяйства и благоустройства города Москвы;(495) 621-88-68;СВАО;Ростокино;Лыжные трассы и базы (сезонные);7;4;0;;55.843325;37.638914
17396;Тенистый пр. вл. 6-8;Лыжная трасса;Тенистый проезд,  владение 6-8;37,636181;55,860387;;;;;;Префектура;(495) 618-40-24 ;СВАО;Свиблово;Лыжные трассы и базы (сезонные);1,5;1;0;;55.860387;37.636181
18288;Этнографическая деревня Бибирево;Лыжная трасса;Этнографическая деревня, вдоль улицы Белозерская;37,613829;55,896619;;;;;;Департамент жилищно-коммунального хозяйства и благоустройства города Москвы;(495) 621-88-68;СВАО;Бибирево;Лыжные трассы и базы (сезонные);1;1;0;;55.896619;37.613829
17431;ул. Северодвинская, д. 11;Лыжная трасса;Улица Северодвинская,  дом 11;37,681786;55,890421;;;;;;Префектура;(495) 618-40-24 ;СВАО;Северное Медведково;Лыжные трассы и базы (сезонные);1;1;0;;55.890421;37.681786
17063;сквер между ул.Санникова и ул.Хачатуряна;Лыжная трасса;Улица Санникова;37,59957;55,861052;;;;;;Префектура;(499) 907-53-00;СВАО;Отрадное;Лыжные трассы и базы (сезонные);2;2;0;;55.861052;37.59957
17066;Сквер по ул. Заповедная;Лыжная трасса;Певческое поле, улица Заповедная;37,649656;55,869571;;;;;;Департамент жилищно-коммунального хозяйства и благоустройства города Москвы;(495) 621-88-68;СВАО;Южное Медведково;Лыжные трассы и базы (сезонные);7;5;0;;55.869571;37.649656
17425;Улица Заповедная, д. 3;Лыжная трасса;Улица Заповедная,  дом 3;37,632747;55,864678;;;;;;Департамент жилищно-коммунального хозяйства и благоустройства города Москвы;(499) 790-30-77;СВАО;Южное Медведково;Лыжные трассы и базы (сезонные);1;1;0;;55.864678;37.632747
17434;Улица Сухонская, д. 7;Лыжная трасса;Улица Сухонская,  дом 7;37,654;55,875688;;;;;;Департамент жилищно-коммунального хозяйства и благоустройства города Москвы;(495) 621-88-68;СВАО;Северное Медведково;Лыжные трассы и базы (сезонные);1,8;1,8;0;;55.875688;37.654
16738;"Парк ""Дружбы""";Лыжная трасса;Улица Фестивальная;37,474828;55,852699;;;;;;Департамент жилищно-коммунального хозяйства и благоустройства города Москвы;(985) 411-46-45;САО;Левобережный;Лыжные трассы и базы (сезонные);2,5;2,5;0;;55.852699;37.474828
16383;Кронштатский б-р. дом 20;Лыжная трасса;Кронштатский бульвар, дом 20;37,505169;55,843132;;;;;;Префектура;(495) 940-33-62;САО;Головинский;Лыжные трассы и базы (сезонные);1,5;1,5;0;;55.843132;37.505169
16761;Парк по Ангарской улице;Лыжная трасса;Улица Ангарская;37,525553;55,878813;;;;;;Департамент жилищно-коммунального хозяйства и благоустройства города Москвы;(985) 411-46-45;САО;Дмитровский;Лыжные трассы и базы (сезонные);2,8;2,8;0;;55.878813;37.525553
16750;"Парк ""Вагоноремонт""";Лыжная трасса;Улица Лобненская, дом 13;37,531751;55,888155;;;;;;Департамент жилищно-коммунального хозяйства и благоустройства города Москвы;(499) 486-60-61;САО;Дмитровский;Лыжные трассы и базы (сезонные);1,5;1,5;0;;55.888155;37.531751
15765;Деревня Бурцево;Лыжная трасса;Молжаниновский район;37,264827;55,573673;;;;;;Префектура;(499) 905-47-41;САО;Молжаниновский район;Лыжные трассы и базы (сезонные);2;2;0;;55.573673;37.264827
16422;Лыжная трасса района Молжаниновский;Лыжная трасса;4-е Новоселки, владение 2;37,391278;55,927248;;;;;;Префектура;(499) 905-47-41;САО;Молжаниновский район;Лыжные трассы и базы (сезонные);3;3;0;;55.927248;37.391278
17413;Тимирязевский лесопарк;Лыжная трасса;Улица Большая Академическая,       дом 31-35;37,532667;55,829229;;;;;;Федеральная;(499) 976-49-56;САО;Тимирязевский;Лыжные трассы и базы (сезонные);3;3;0;;55.829229;37.532667
16752;Парк «Дубки»;Лыжная трасса;Улица Дубки;37,564993;55,820343;;;;;;Департамент жилищно-коммунального хозяйства и благоустройства города Москвы;(985) 411-46-45;САО;Тимирязевский;Лыжные трассы и базы (сезонные);1;1;0;;55.820343;37.564993
16751;Парк «Грачевка»;Лыжная трасса;Улица Клинская;37,505362;55,867077;;;;;;Департамент жилищно-коммунального хозяйства и благоустройства города Москвы;(495) 453-11-75;САО;Ховрино;Лыжные трассы и базы (сезонные);1;1;0;;55.867077;37.505362
16388;Левобережный лесопарк;Лыжная трасса;Улица Левобережная,      дом 12;37,471451;55,879861;;;;;;Департамент природопользования и охраны окружающей среды города Москвы;(499) 458-10-84;САО;Ховрино;Лыжные трассы и базы (сезонные);3;3;0;;55.879861;37.471451
16749;Парк «Березовая роща»;Лыжная трасса;Улица Куусинена,      дом 15-19;37,515261;55,784657;;;;;;Департамент жилищно-коммунального хозяйства и благоустройства города Москвы;(985) 411-46-45;САО;Хорошевский;Лыжные трассы и базы (сезонные);1,5;1,5;0;;55.784657;37.515261
10223;Парк-усадьба «Михалково»             (Головинские пруды);Лыжная трасса;Улица Михалковская,  дом 38;37,518527;55,841594;;;;;;Префектура;(495) 940-33-62;САО;Головинский;Лыжные трассы и базы (сезонные);2;2;0;;55.841594;37.518527
16378;Коровинское ш., вл.25;Лыжная трасса;Коровинское шоссе;37,525186;55,878066;;;;;;Департамент жилищно-коммунального хозяйства и благоустройства города Москвы;(985) 411-46-45;САО;Дмитровский;Лыжные трассы и базы (сезонные);2;2;0;;55.878066;37.525186
10354;Битцевский лесопарк;Лыжная трасса;Улица Рокотова, дом 1/12;37,556105;55,610375;;;;;;Департамент природопользования и охраны окружающей среды города Москвы;(499) 724-52-12;ЮЗАО;Ясенево;Лыжные трассы и базы (сезонные);5;0;0;;55.610375;37.556105
18412;"Лесной массив, 8-й микрорайон,( 20-21 кварталы ""Крюковского"" лесопарка)";Лыжная трасса;"Лесной массив, 8-й микрорайон,( 20-21 кварталы ""Крюковского"" лесопарка)";37,192929;55,976523;;;;;;Департамент природопользования и охраны окружающей среды города Москвы;(499) 731-14-05;ЗелАО;Старое Крюково;лыжные трассы и базы (сезонные);3;0;0;;55.976523;37.192929
18413;Парк Ровестник, 5-й микрорайон;Лыжная трасса;Парк Ровестник, 5-й микрорайон;37,226144;56,000125;;;;;;Департамент природопользования и охраны окружающей среды города Москвы;(499) 734-53-04;ЗелАО;Савелки;лыжные трассы и базы (сезонные);1,2;1,2;0;;56.000125;37.226144
18414;"Лесопарковая зона, 1-й микрорайон (5 квартал ""Крюковского"" лесопарка)";Лыжная трасса;"Лесопарковая зона, 1-й микрорайон (5 квартал ""Крюковского"" лесопарка)";37,211727;56,00859;;;;;;Департамент природопользования и охраны окружающей среды города Москвы;(499) 736-05-05;ЗелАО;Матушкино;лыжные трассы и базы (сезонные);2,5;0;0;;56.00859;37.211727
18415;ПИП Измайлово;Лыжная трасса;12-я Парковая;37,810474;55,78844;;;;;;Департамент природопользования и охраны окружающей среды города Москвы;(495) 465-04-45;ВАО;Восточное Измайлово;Лыжные трассы и базы (сезонные);5;0;0;;55.78844;37.810474
18416;"ПКиО ""Измайловский""";Лыжная трасса;Центральная и южная часть парка;37,792258;55,775943;;;;;;Департамент природопользования и охраны окружающей среды города Москвы;(499) 166-36-55;ВАО;Измайлово;Лыжные трассы и базы (сезонные);8;8;0;;55.775943;37.792258
18417;ПИП Измайлово;Лыжная трасса;ПИП «Измайлово» начало маршрута улица 3-я Владимирская, пересечение с шоссе Энтузиастов;37,782987;55,767243;;;;;;Департамент природопользования и охраны окружающей среды города Москвы;(495) 465-04-45;ВАО;Измайлово;Лыжные трассы и базы (сезонные);3,2;0;0;;55.767243;37.782987
17759;Черкизовский парк;Лыжная трасса;Улица Большая Черкизовская,     дом 23;37,737892;55,803585;;;;;;Департамент образования города Москвы;(499) 780-25-39;ВАО;Преображенское;Лыжные трассы и базы (сезонные);1,4;1,4;0;;55.803585;37.737892
17045;Парк Сиреневый сад;Лыжная трасса;Щелковское шоссе, дом 12;37,763998;55,804196;;;;;;Департамент жилищно-коммунального хозяйства и благоустройства города Москвы;(985) 411-46-45;ВАО;Северное Измайлово;Лыжные трассы и базы (сезонные);2,2;2,2;0;;55.804196;37.763998
17410;территория МосГУ;Лыжная трасса;Улица Юности,           дом 5/1;37,81309;55,730207;;;;;;Федеральная;(495) 370-22-20;ВАО;Вешняки;Лыжные трассы и базы (сезонные);1,5;1,5;0;;55.730207;37.81309
16305;Ивановский лесопарк;Лыжная трасса;Свободный проспект,      дом 11;37,823192;55,759958;;;;;;Департамент природопользования и охраны окружающей среды города Москвы;(495) 918-98-40;ВАО;Ивановское;Лыжные трассы и базы (сезонные);3;3;0;;55.759958;37.823192
16304;Зона отдыха Серебряно-Виноградные пруды;Лыжная трасса;Измайловский проспект, дом 1;37,766688;55,794911;;;;;;Департамент природопользования и охраны окружающей среды города Москвы;(495) 672-94-73;ВАО;Измайлово;Лыжные трассы и базы (сезонные);2,5;2,5;0;;55.794911;37.766688
16708;Озеро Святое;Лыжная трасса;Улица Салтыковская;37,87129;55,716832;;;;;;Департамент природопользования и охраны окружающей среды города Москвы;(499) 797-50-10;ВАО;Косино-Ухтомский;Лыжные трассы и базы (сезонные);2;0;0;;55.716832;37.87129
16888;"ПИП ""Измайлово""";Лыжная трасса;вход с улицы 5-я Парковая;37,788217;55,787081;;;;;;Департамент природопользования и охраны окружающей среды города Москвы;(499) 367-36-81;ВАО;Измайлово;Лыжные трассы и базы (сезонные);1;0;0;;55.787081;37.788217
17433;Улица Сухонская, д. 19;Лыжная трасса;Улица Сухонская,                                дом 19;37,656718;55,880585;;;;;;Департамент жилищно-коммунального хозяйства и благоустройства города Москвы;(495) 621-88-68;СВАО;Северное Медведково;Лыжные трассы и базы (сезонные);1,7;1,7;0;;55.880585;37.656718
16406;Лесопарк Кусково;Лыжная трасса;Рассветная аллея,   квартал 2;37,774095;55,734027;;;;;;Департамент природопользования и охраны окружающей среды города Москвы;(499) 367-89-18;ВАО;Вешняки;Лыжные трассы и базы (сезонные);2,2;1;0;;55.734027;37.774095
16886;ПИП Измайлово;Лыжная трасса;16- Парковая, дом 4А;37,825582;55,79691;;;;;;Департамент природопользования и охраны окружающей среды города Москвы;(495) 465-04-45;ВАО;Восточное Измайлово;Лыжные трассы и базы (сезонные);3;0;0;;55.79691;37.825582
16959;Поселок Акулово;Лыжная трасса;Поселок    Акулово,  дом 24;37,793215;56,007378;;;;;;Префектура;(499) 780-67-69;ВАО;Восточный;Лыжные трассы и базы (сезонные);5;0;0;;56.007378;37.793215
11115;"Горенский лесопарк, ГБУ ЦСП ""Измайлово""";Лыжная трасса;Улица Западная, дом 16 Б;37,922467;55,800482;;;;;;Департамент физической культуры и спорта города Москвы;(499) 780-15-82;ВАО;Восточный;Лыжные трассы и базы (сезонные);7,5;0;0;;55.800482;37.922467
18289;Южный парк;Лыжная трасса;Территория между улицей 9 Мая и улицей Западная;37,87219;55,816162;;;;;;Департамент природопользования и охраны окружающей среды города Москвы;(499) 780-97-05;ВАО;Восточный;Лыжные трассы и базы (сезонные);2,5;0;0;;55.816162;37.87219
17409;"Лесопарковая зона ""Лосиный остров""";Лыжная трасса;Улица Курганская ,       дом 3-9;37,808751;55,830227;;;;;;Департамент природопользования и охраны окружающей среды города Москвы;(495) 467-65-84;ВАО;Гольяново;Лыжные трассы и базы (сезонные);7,5;0;0;;55.830227;37.808751
16302;ПИП Измайлово, лесопарк Терлецкий;Лыжная трасса;Свободный проспект,     дом 2 А напротив;37,82172;55,76628;;;;;;Департамент природопользования и охраны окружающей среды города Москвы;(495) 918-98-40;ВАО;Ивановское;Лыжные трассы и базы (сезонные);1,6;0,8;0;;55.76628;37.82172
17408;ПИП Измайлово, лесопарк Терлецкий;Лыжная трасса;Улица Металургов,    дом 60 напротив;37,807383;55,762217;;;;;;Департамент природопользования и охраны окружающей среды города Москвы;(495) 965-25-73;ВАО;Перово;Лыжные трассы и базы (сезонные);3;3;0;;55.762217;37.807383
17018;Салтыковский парк;Лыжная трасса;Улица Лухмановская,   дом 19 А;37,897892;55,723972;;;;;;Департамент физической культуры и спорта города Москвы;(499) 797-50-10;ВАО;Косино-Ухтомский;Лыжные трассы и базы (сезонные);8;0;0;;55.723972;37.897892
16647;"Лесопарковая зона ""Лосиный остров""";Лыжная трасса;Открытое шоссе, дом 29;37,762366;55,830796;;;;;;Департамент природопользования и охраны окружающей среды города Москвы;(499) 167-04-05;ВАО;Метрогородок;Лыжные трассы и базы (сезонные);9;0;0;;55.830796;37.762366
17019;Сатыковский Лесопарк;Лыжная трасса;Улица Салтыковская,    дом 33;37,876421;55,73942;;;;;;Департамент природопользования и охраны окружающей среды города Москвы;(495) 700-37-07;ВАО;Новокосино;Лыжные трассы и базы (сезонные);2;0;0;;55.73942;37.876421
16307;"ПКиО ""Измайловский""";Лыжная трасса;Северная часть парка;37,789189;55,786006;;;;;;Департамент природопользования и охраны окружающей среды города Москвы;(499) 166-36-55;ВАО;Измайлово;Лыжные трассы и базы (сезонные);8;8;0;;55.786006;37.789189
16650;"Лесопарковая зона ""Лосиный остров""";Лыжная трасса;Яузская аллея;37,684607;55,830146;;;;;;Департамент природопользования и охраны окружающей среды города Москвы;(499) 268-60-45;ВАО;Богородское;Лыжные трассы и базы (сезонные);2,5;0;0;;55.830146;37.684607
16890;"ПИП ""Косинский""";Лыжная трасса;Улица Медведева,       дом 26;37,888699;55,719007;;;;;;Департамент природопользования и охраны окружающей среды города Москвы;(495) 700-37-07;ВАО;Косино-Ухтомский;Лыжные трассы и базы (сезонные);3,2;0;0;;55.719007;37.888699
16891;"ПИП ""Измайлово""";Лыжная трасса;Вход с улицы Чечулина;37,8175;55,778254;;;;;;Департамент природопользования и охраны окружающей среды города Москвы;(499) 367-89-18;ВАО;Ивановское;Лыжные трассы и базы (сезонные);1,5;0;0;;55.778254;37.8175
17352;"СК ""Крылья Советов""";Лыжная трасса;Проспект Буденного, дом17А;37,728327;55,774808;;;;;;федеральная;(499) 785-89-74;ВАО;Соколиная гора;Лыжные трассы и базы (сезонные);0,5;0,5;0;;55.774808;37.728327
16649;"НП ""Лосиный остров""";Лыжная трасса;Улица Уральская,    дом 19;37,794451;55,822317;;;;;;Департамент природопользования и охраны окружающей среды города Москвы;(495) 467-65-84;ВАО;Гольяново;Лыжные трассы и базы (сезонные);7,5;0;0;;55.822317;37.794451
16893;ПК № 11 Гольяновский парк;Лыжная трасса;УлицаАлтайская,   владение 4;37,803481;55,820193;;;;;;Департамент жилищно-коммунального хозяйства и благоустройства города Москвы;(985) 411-46-45;ВАО;Гольяново;Лыжные трассы и базы (сезонные);3;3;0;;55.820193;37.803481
16904;ПКиО Сокольники;Лыжная трасса;Улица Сокольнический вал дом 1, строение 1;37,676549;55,792598;;;;;;Департамент культуры города Москвы;(499) 269-13-13;ВАО;Сокольники;Лыжные трассы и базы (сезонные);45;11;0;;55.792598;37.676549
11973;Ульяновский лесопарк, между улица Рассказовская, д. 31 и Киевким шоссе;Лыжная трасса;Улица Рассказовская, дом 31;37,310324;55,613487;;;;;;Федеральная;(499) 144-39-22;ЗАО;Внуково;Лыжные трассы и базы (сезонные);7;0;0;;55.613487;37.310324
13512;"Природно исторический парк ""Москворецкий"", Гребной канал";Лыжная трасса;Улица Крылатская, дом 2, стр. 5;37,44295;55,752985;;;;;;Департамент физической культуры и спорта города Москвы;(499) 144-39-22;ЗАО;Крылатское;Лыжные трассы и базы (сезонные);7,5;0;0;;55.752985;37.44295
13546;"Природно исторический парк ""Москворецкий"", между улицей Тимошенко, дом 1 и МКАД";Лыжная трасса;Улица Маршала Тимошенко, дом 1;37,392463;55,741791;;;;;;Муниципалитет;(499) 144-39-22;ЗАО;Кунцево;Лыжные трассы и базы (сезонные);25;0;0;;55.741791;37.392463
13012;"Природно исторический парк ""Москворецкий"", между Крылатским мостом и улица Новозаводской";Лыжная трасса;Парк культуры и отдыха Фили, Большая Филёвская, дом 32, корпус 3;37,467554;55,742434;;;;;;Департамент культуры города Москвы;(499) 145-45-05;ЗАО;Филёвский парк;Лыжные трассы и базы (сезонные);9;2;0;;55.742434;37.467554
16443;Территория МГУ;Лыжная трасса;Зеленая полоса между улицей Косыгина и Университетским проспектом;37,536328;55,709323;;;;;;Федеральная;(499) 144-39-22;ЗАО;Раменки;Лыжные трассы и базы (сезонные);8;2;0;;55.709323;37.536328
12344;"Природный заказник ""Воробьевы горы""";Лыжная трасса;Воробьёвы горы, улица Косыгина,   дом 28;37,544698;55,708332;;;;;;Департамент физической культуры и спорта города Москвы;(499) 726- 15 -84;ЗАО;Раменки;Лыжные трассы и базы (сезонные);4;1;0;;55.708332;37.544698
13510;Природный заказник Долина реки Сетунь между Аминьевским шоссе и улица Нежинской;Лыжная трасса;Улица Кременчугская,     дом 36;37,462404;55,71389;;;;;;Департамент природопользования и охраны окружающей среды города Москвы;(499) 726- 15 -84;ЗАО;Фили-Давыдково;Лыжные трассы и базы (сезонные);2;2;0;;55.71389;37.462404
12844;Подходы к Олимпийской деревне-80;Лыжная трасса;Мичуринский проспект , дом 2 Олимпийская деревня-80;37,47359;55,677847;;;;;;Департамент жилищно-коммунального хозяйства и благоустройства города Москвы;(499) 144-39-22;ЗАО;Тропарево-Никулино;Лыжные трассы и базы (сезонные);8;1;0;;55.677847;37.47359
13335;"Ландшафтный заказник ""Тропаревский"", между улицей Академика Анохина, МКАД, Востряковским кладбищем";Лыжная трасса;Улица Академика Анохина, дом 22;37,467821;55,662237;;;;;;Департамент природопользования и охраны окружающей среды города Москвы;(499) 726- 15 -84;ЗАО;Тропарево-Никулино;Лыжные трассы и базы (сезонные);2,5;2;0;;55.662237;37.467821
13406;Зона отдыха (Мещерское), между улицей Воскресенской и улицей Прудовой;Лыжная трасса;Улица Варваринская, дом 2, строение 8;37,414411;55,665559;;;;;;Префектура;(499) 144-39-22;ЗАО;Солнцево;Лыжные трассы и базы (сезонные);5;1;0;;55.665559;37.414411
10360;Ульяновский лесопарк, лесной массив близ деревни Орлово и Центра всесезонных видов спорта;Лыжная трасса;Проектируемый проезд № 635, дом 9;37,376575;55,627403;;;;;;Департамент природопользования и охраны окружающей среды города Москвы;(499) 144-39-22;ЗАО;Ново-Переделкино;Лыжные трассы и базы (сезонные);15;0;0;;55.627403;37.376575
16640;"Парк ""50 лет Октября"", улица Удальцова, д. 22";Лыжная трасса;Парк 50-летия октября,        улица Удальцова, напротив дома 49;37,505391;55,678452;;;;;;Департамент жилищно-коммунального хозяйства и благоустройства города Москвы;(985) 411-46-45;ЗАО;Проспект Вернадского;Лыжные трассы и базы (сезонные);10;2;0;;55.678452;37.505391
10361;Улица Барвихинская, д. 10;Лыжная трасса;Улица Барвихинская,       дом 10;37,385735;55,717419;;;;;;Префектура;(499) 144-39-22;ЗАО;Можайский,;Лыжные трассы и базы (сезонные);2,5;1;0;;55.717419;37.385735
18253;Парк Победы на Поклонной горе;Лыжная трасса;Улица Братьев Фонченко, дом 7;37,511597;55,729196;;;;;;Префектура;(499) 148-83-00;ЗАО;Дорогомилово;Лыжные трассы и базы (сезонные);2;0;0;;55.729196;37.511597
16423;лыжный модуль, улица Поляны, напротив вл. 4-6;Лыжная трасса;Улица Поляны, напротив     владение 4-6;37,557478;55,568099;;;;;;Департамент природопользования и охраны окружающей среды города Москвы;(495) 423-23-23;ЮЗАО;Северное Бутово;Лыжные трассы и базы (сезонные);7,5;0;0;;55.568099;37.557478
17435;"Улица Южнобутовская, д. 96 ФОК ""Изумрудный""";Лыжная трасса;"ФОК ""Изумрудный""";37,511441;55,531715;;;;;;Префектура;(499) 724-52-12;ЮЗАО;Южное Бутово;Лыжные трассы и базы (сезонные);3;3;0;;55.531715;37.511441
16493;Московский городской Дворец детского (юношеского) творчества;Лыжная трасса;Улица Косыгина ,      дом 17;37,554457;55,703078;;;;;;Департамент образования города Москвы;(499) 137-81-50;ЮЗАО;Гагаринский;Лыжные трассы и базы (сезонные);3;3;0;;55.703078;37.554457
10353;Битцевский лесопарк;Лыжная трасса;Пересечение булвара Дмитрия Донского и улицы Академика Глушко;37,569606;55,561902;;;;;;Департамент природопользования и охраны окружающей среды города Москвы;(499) 744-01-90;ЮЗАО;Северное Бутово;Лыжные трассы и базы (сезонные);3;0;0;;55.561902;37.569606
10349;Битцевский лесопарк;Лыжная трасса;Зона отдыха «Битца» 36 км. МКАД;37,627641;55,601563;;;;;;Департамент природопользования и охраны окружающей среды города Москвы;(926) 532-71-07;ЮЗАО;Северное Бутово;Лыжные трассы и базы (сезонные);25;0;0;;55.601563;37.627641
16385;Ландшафтный заказник «Теплый Стан»;Лыжная трасса;Улица Академика Виноградова, владение 12 –    улица Островитянова, владение 10;37,490372;55,634553;;;;;;Департамент природопользования и охраны окружающей среды города Москвы;(495) 438-63-72;ЮЗАО;Тёплый Стан;Лыжные трассы и базы (сезонные);3,6;0;0;;55.634553;37.490372
10350;Битцевский лесопарк;Лыжная трасса;Улица Инессы Арманд, владение 3-7;37,549536;55,592973;;;;;;Департамент природопользования и охраны окружающей среды города Москвы;(495) 382-61-47;ЮЗАО;Ясенево;Лыжные трассы и базы (сезонные);6,2;0;0;;55.592973;37.549536
16764;Парк у прудов «Радуга»;Лыжная трасса;Улица Вешняковская, владение 16;37,825469;55,730363;;;;;;Департамент жилищно-коммунального хозяйства и благоустройства города Москвы;(985) 411-46-45;ВАО;Вешняки;Лыжные трассы и базы (сезонные);2;2;0;;55.730363;37.825469
16960;Поселок Акулово;Лыжная трасса;поселок Акулово,  дом 43;37,791818;56,003851;;;;;;Префектура;(499) 780-67-69;ВАО;Восточный;Лыжные трассы и базы (сезонные);5;0;0;;56.003851;37.791818
10355;Битцевский лесопарк;Лыжная трасса;Севастопольский проспект,    напротив владения, 66;37,543172;55,626244;;;;;;Департамент природопользования и охраны окружающей среды города Москвы;(499) 724-52-12;ЮЗАО;Ясенево;Лыжные трассы и базы (сезонные);3;0;0;;55.626244;37.543172
10351;Битцевский лесопарк;Лыжная трасса;Улица Красного маяка , владение 28 – пересечение Севастопольского проспекта, и улицы Миклухо-Маклая, владение 65;37,570676;55,608035;;;;;;Департамент природопользования и охраны окружающей среды города Москвы;(495) 426-00-22;ЮЗАО;Ясенево;Лыжные трассы и базы (сезонные);6;0;0;;55.608035;37.570676
10352;Битцевский лесопарк;Лыжная трасса;Новоясеневский тупик, владение 1;37,558048;55,597557;;;;;;Департамент природопользования и охраны окружающей среды города Москвы;(499) 724-52-12;ЮЗАО;Ясенево;Лыжные трассы и базы (сезонные);5;0;0;;55.597557;37.558048
10383;Городской округ Троицк Микрорайон Б, за ГСК №8;Лыжная трасса;Городской округ Троицк Микрорайон Б,      за ГСК №8;37,292075;55,489858;;;;;;Федеральная;(925) 004-07-45;ТиНАО;Городской округ Троицк;Лыжные трассы и базы (сезонные);10;2,5;0;;55.489858;37.292075
16961;"Поселение Вороново, оздоровительный комплекс ""Солнечный городок"" ЦБРФ";Лыжная трасса;"Поселение Вороново, оздоровительный комплекс ""Солнечный городок"" ЦБРФ";37,134524;55,31748;;;;;;Территория поселения;(985) 289-65-30;ТиНАО;поселение Вороновское;Лыжные трассы и базы (сезонные);8,7;0;0;;55.31748;37.134524
16963;Поселение Щапово, лесопарк Щапово;Лыжная трасса;Поселение Щапово, лесопарк Щапово;37,390301;55,419208;;;;;;Территория поселения;(916) 449-62-20;ТиНАО;поселение Щаповское;Лыжные трассы и базы (сезонные);2;0;0;;55.419208;37.390301
11118;город Московский, мкр. Юго-Западный. Лесопарковая зона;Лыжная трасса;Микрорайон задный Лесопарковая зона;37,342949;55,592673;;;;;;Территория поселения;(495) 840-08-69;ТиНАО;город Московский;Лыжные трассы и базы (сезонные);10;0;0;;55.592673;37.342949
16962;Поселение Красная Пахра, село Варварино, рядом с церковью Рождества Христова;Лыжная трасса;Поселение Красная Пахра,              село Варварино,     рядом с церковью Рождества Христова;37,253558;55,425193;;;;;;Территория поселения;(926) 996-58-46;ТиНАО;поселение Краснопахорское;Лыжные трассы и базы (сезонные);3,7;0;0;;55.425193;37.253558
18418;"Природно исторический парк ""Москворецкий"" (велодорога)";Лыжная трасса;Улица Крылатские холмы , дом 24;37,417279;55,762706;;;;;;частная;(495) 662-43-92;ЗАО;Крылатское;Лыжные трассы и базы (сезонные);3;0;0;;55.762706;37.417279
18419;Улица Лобачевского, д. 116;Лыжная трасса;Улица Лобачевского,      дом 117;37,47991;55,678524;;;;;;Префектура;(903) 710-21-05;ЗАО;Очаково-Матвеевское;Лыжные трассы и базы (сезонные);3;0;0;;55.678524;37.47991
18420;Московский городской Дворец детского (юношеского) творчества;Лыжная трасса;Улица Косыгина,   дом 17;37,55377;55,703423;;;;;;Департамент образования города Москвы;(499) 137-81-50;ЮЗАО;Гагаринский;Лыжные трассы и базы (сезонные);3;0;0;;55.703423;37.55377
18421;Поселение Красная Пахра, село Варварино, рядом с церковью Рождества Христова;Лыжная трасса;Поселение Красная Пахра,               село Варварино,     рядом с церковью Рождества Христова;37,254459;55,424539;;;;;;Территория поселения;(926) 996-58-46;ТиНАО;поселение Краснопахорское;Лыжные трассы и базы (сезонные);2,5;0;0;;55.424539;37.254459
